{"type": "FeatureCollection", "features": [ {"type": "Feature", "properties": {"norad_id": 42969, "name": "SENTINEL-5P", "group": "resource", "lat": 37.861163450998816, "lon": -84.96383704153722, "alt_km": 823.6930580102216, "timestamp": "2025-12-09T07:41:32.860441+00:00", "meta": {"OBJECT_NAME": "SENTINEL-5P", "OBJECT_ID": "2017-064A", "EPOCH": "2025-12-08T19:40:13.954080", "MEAN_MOTION": 14.19516133, "ECCENTRICITY": 9.537e-05, "INCLINATION": 98.7779, "RA_OF_ASC_NODE": 281.4386, "ARG_OF_PERICENTER": 87.1183, "MEAN_ANOMALY": 273.0102, "EPHEMERIS_TYPE": 0, "CLASSIFICATION_TYPE": "U", "NORAD_CAT_ID": 42969, "ELEMENT_SET_NO": 999, "REV_AT_EPOCH": 42255, "BSTAR": 0.00011661741, "MEAN_MOTION_DOT": 2.02e-06, "MEAN_MOTION_DDOT": 0}, "tle": {"line1": "1 42969U 17064A   25342.81960595  .00000202  00000+0  11662-3 0  9999", "line2": "2 42969  98.7779 281.4386 0000953  87.1183 273.0102 14.19516133422553"}}, "geometry": {"type": "Point", "coordinates": [-84.96383704153722, 37.861163450998816]}}, {"type": "Feature", "properties": {"norad_id": 42987, "name": "SKYSAT-C11", "group": "resource", "lat": 21.094473618423738, "lon": 117.84872958998668, "alt_km": 424.83760540061576, "timestamp": "2025-12-09T07:41:32.860451+00:00", "meta": {"OBJECT_NAME": "SKYSAT-C11", "OBJECT_ID": "2017-068A", "EPOCH": "2025-12-08T22:17:15.384192", "MEAN_MOTION": 15.4720227, "ECCENTRICITY": 9.487e-05, "INCLINATION": 97.4145, "RA_OF_ASC_NODE": 120.3269, "ARG_OF_PERICENTER": 109.9513, "MEAN_ANOMALY": 250.1839, "EPHEMERIS_TYPE": 0, "CLASSIFICATION_TYPE": "U", "NORAD_CAT_ID": 42987, "ELEMENT_SET_NO": 999, "REV_AT_EPOCH": 45372, "BSTAR": 0.0005192683, "MEAN_MOTION_DOT": 0.00026358, "MEAN_MOTION_DDOT": 0}, "tle": {"line1": "1 42987U 17068A   25342.92865028  .00026358  00000+0  51927-3 0  9998", "line2": "2 42987  97.4145 120.3269 0000948 109.9513 250.1839 15.47202270453723"}}, "geometry": {"type": "Point", "coordinates": [117.84872958998668, 21.094473618423738]}}, {"type": "Feature", "properties": {"norad_id": 42988, "name": "SKYSAT-C10", "group": "resource", "lat": -68.45250463148112, "lon": 133.4509203337282, "alt_km": 480.9415931202011, "timestamp": "2025-12-09T07:41:32.860462+00:00", "meta": {"OBJECT_NAME": "SKYSAT-C10", "OBJECT_ID": "2017-068B", "EPOCH": "2025-12-08T21:01:23.008800", "MEAN_MOTION": 15.3193243, "ECCENTRICITY": 0.00053174, "INCLINATION": 97.4262, "RA_OF_ASC_NODE": 113.7169, "ARG_OF_PERICENTER": 114.4786, "MEAN_ANOMALY": 245.701, "EPHEMERIS_TYPE": 0, "CLASSIFICATION_TYPE": "U", "NORAD_CAT_ID": 42988, "ELEMENT_SET_NO": 999, "REV_AT_EPOCH": 45320, "BSTAR": 0.00042536239, "MEAN_MOTION_DOT": 0.00013049, "MEAN_MOTION_DDOT": 0}, "tle": {"line1": "1 42988U 17068B   25342.87596075  .00013049  00000+0  42536-3 0  9995", "line2": "2 42988  97.4262 113.7169 0005317 114.4786 245.7010 15.31932430453202"}}, "geometry": {"type": "Point", "coordinates": [133.4509203337282, -68.45250463148112]}}, {"type": "Feature", "properties": {"norad_id": 42989, "name": "SKYSAT-C9", "group": "resource", "lat": 82.50598286688651, "lon": 31.40846368137057, "alt_km": 443.53678792049686, "timestamp": "2025-12-09T07:41:32.860472+00:00", "meta": {"OBJECT_NAME": "SKYSAT-C9", "OBJECT_ID": "2017-068C", "EPOCH": "2025-12-08T21:55:31.130400", "MEAN_MOTION": 15.35898767, "ECCENTRICITY": 0.00106887, "INCLINATION": 97.4192, "RA_OF_ASC_NODE": 113.1378, "ARG_OF_PERICENTER": 99.9963, "MEAN_ANOMALY": 260.2487, "EPHEMERIS_TYPE": 0, "CLASSIFICATION_TYPE": "U", "NORAD_CAT_ID": 42989, "ELEMENT_SET_NO": 999, "REV_AT_EPOCH": 45349, "BSTAR": 0.00048708407, "MEAN_MOTION_DOT": 0.00016985, "MEAN_MOTION_DDOT": 0}, "tle": {"line1": "1 42989U 17068C   25342.91355475  .00016985  00000+0  48708-3 0  9997", "line2": "2 42989  97.4192 113.1378 0010688  99.9963 260.2487 15.35898767453491"}}, "geometry": {"type": "Point", "coordinates": [31.40846368137057, 82.50598286688651]}}, {"type": "Feature", "properties": {"norad_id": 42990, "name": "SKYSAT-C8", "group": "resource", "lat": 78.93420510359178, "lon": -24.84797128475564, "alt_km": 460.2586596518413, "timestamp": "2025-12-09T07:41:32.860483+00:00", "meta": {"OBJECT_NAME": "SKYSAT-C8", "OBJECT_ID": "2017-068D", "EPOCH": "2025-12-08T21:51:54.057312", "MEAN_MOTION": 15.32787709, "ECCENTRICITY": 0.00018597, "INCLINATION": 97.4283, "RA_OF_ASC_NODE": 112.8952, "ARG_OF_PERICENTER": 4.2109, "MEAN_ANOMALY": 355.9148, "EPHEMERIS_TYPE": 0, "CLASSIFICATION_TYPE": "U", "NORAD_CAT_ID": 42990, "ELEMENT_SET_NO": 999, "REV_AT_EPOCH": 45312, "BSTAR": 0.00044836968, "MEAN_MOTION_DOT": 0.0001413, "MEAN_MOTION_DDOT": 0}, "tle": {"line1": "1 42990U 17068D   25342.91104233  .00014130  00000+0  44837-3 0  9992", "line2": "2 42990  97.4283 112.8952 0001859   4.2109 355.9148 15.32787709453125"}}, "geometry": {"type": "Point", "coordinates": [-24.84797128475564, 78.93420510359178]}}, {"type": "Feature", "properties": {"norad_id": 42991, "name": "SKYSAT-C7", "group": "resource", "lat": -38.888918120298975, "lon": 120.3916523968428, "alt_km": 477.3138061138643, "timestamp": "2025-12-09T07:41:32.860494+00:00", "meta": {"OBJECT_NAME": "SKYSAT-C7", "OBJECT_ID": "2017-068E", "EPOCH": "2025-12-08T22:27:33.304032", "MEAN_MOTION": 15.32194774, "ECCENTRICITY": 0.00078023, "INCLINATION": 97.429, "RA_OF_ASC_NODE": 113.9644, "ARG_OF_PERICENTER": 68.9849, "MEAN_ANOMALY": 291.2226, "EPHEMERIS_TYPE": 0, "CLASSIFICATION_TYPE": "U", "NORAD_CAT_ID": 42991, "ELEMENT_SET_NO": 999, "REV_AT_EPOCH": 45319, "BSTAR": 0.00042919898, "MEAN_MOTION_DOT": 0.00013283, "MEAN_MOTION_DDOT": 0}, "tle": {"line1": "1 42991U 17068E   25342.93580213  .00013283  00000+0  42920-3 0  9990", "line2": "2 42991  97.4290 113.9644 0007802  68.9849 291.2226 15.32194774453196"}}, "geometry": {"type": "Point", "coordinates": [120.3916523968428, -38.888918120298975]}}, {"type": "Feature", "properties": {"norad_id": 42992, "name": "SKYSAT-C6", "group": "resource", "lat": 82.31913521538155, "lon": 39.33419495225242, "alt_km": 460.6691768783039, "timestamp": "2025-12-09T07:41:32.860506+00:00", "meta": {"OBJECT_NAME": "SKYSAT-C6", "OBJECT_ID": "2017-068F", "EPOCH": "2025-12-08T21:54:00.476928", "MEAN_MOTION": 15.31363919, "ECCENTRICITY": 0.00052333, "INCLINATION": 97.4324, "RA_OF_ASC_NODE": 114.3826, "ARG_OF_PERICENTER": 93.1487, "MEAN_ANOMALY": 267.0353, "EPHEMERIS_TYPE": 0, "CLASSIFICATION_TYPE": "U", "NORAD_CAT_ID": 42992, "ELEMENT_SET_NO": 999, "REV_AT_EPOCH": 45317, "BSTAR": 0.00043809969, "MEAN_MOTION_DOT": 0.00013206, "MEAN_MOTION_DDOT": 0}, "tle": {"line1": "1 42992U 17068F   25342.91250552  .00013206  00000+0  43810-3 0  9993", "line2": "2 42992  97.4324 114.3826 0005233  93.1487 267.0353 15.31363919453174"}}, "geometry": {"type": "Point", "coordinates": [39.33419495225242, 82.31913521538155]}}, {"type": "Feature", "properties": {"norad_id": 43111, "name": "CARTOSAT-2F", "group": "resource", "lat": -15.743449325074035, "lon": 43.12148315791731, "alt_km": 513.4949096884638, "timestamp": "2025-12-09T07:41:32.860517+00:00", "meta": {"OBJECT_NAME": "CARTOSAT-2F", "OBJECT_ID": "2018-004A", "EPOCH": "2025-12-08T23:51:30.025728", "MEAN_MOTION": 15.19212158, "ECCENTRICITY": 6.625e-05, "INCLINATION": 97.4315, "RA_OF_ASC_NODE": 40.6916, "ARG_OF_PERICENTER": 136.8894, "MEAN_ANOMALY": 223.2393, "EPHEMERIS_TYPE": 0, "CLASSIFICATION_TYPE": "U", "NORAD_CAT_ID": 43111, "ELEMENT_SET_NO": 999, "REV_AT_EPOCH": 43845, "BSTAR": 0.00024938565, "MEAN_MOTION_DOT": 5.183e-05, "MEAN_MOTION_DDOT": 0}, "tle": {"line1": "1 43111U 18004A   25342.99409752  .00005183  00000+0  24939-3 0  9990", "line2": "2 43111  97.4315  40.6916 0000662 136.8894 223.2393 15.19212158438453"}}, "geometry": {"type": "Point", "coordinates": [43.12148315791731, -15.743449325074035]}}, {"type": "Feature", "properties": {"norad_id": 43259, "name": "GAOFEN-1 02", "group": "resource", "lat": -79.70151233941569, "lon": 92.54353134040416, "alt_km": 647.1934140191715, "timestamp": "2025-12-09T07:41:32.860527+00:00", "meta": {"OBJECT_NAME": "GAOFEN-1 02", "OBJECT_ID": "2018-031A", "EPOCH": "2025-12-08T22:18:42.325920", "MEAN_MOTION": 14.76468104, "ECCENTRICITY": 0.00014237, "INCLINATION": 98.0808, "RA_OF_ASC_NODE": 40.7174, "ARG_OF_PERICENTER": 227.5357, "MEAN_ANOMALY": 132.5732, "EPHEMERIS_TYPE": 0, "CLASSIFICATION_TYPE": "U", "NORAD_CAT_ID": 43259, "ELEMENT_SET_NO": 999, "REV_AT_EPOCH": 41462, "BSTAR": 0.00023099387, "MEAN_MOTION_DOT": 1.556e-05, "MEAN_MOTION_DDOT": 0}, "tle": {"line1": "1 43259U 18031A   25342.92965655  .00001556  00000+0  23099-3 0  9991", "line2": "2 43259  98.0808  40.7174 0001423 227.5357 132.5732 14.76468104414623"}}, "geometry": {"type": "Point", "coordinates": [92.54353134040416, -79.70151233941569]}}, {"type": "Feature", "properties": {"norad_id": 43260, "name": "GAOFEN-1 03", "group": "resource", "lat": 31.50484305401526, "lon": 35.99036046212138, "alt_km": 637.9704157972155, "timestamp": "2025-12-09T07:41:32.860538+00:00", "meta": {"OBJECT_NAME": "GAOFEN-1 03", "OBJECT_ID": "2018-031B", "EPOCH": "2025-12-08T23:24:57.685824", "MEAN_MOTION": 14.76423902, "ECCENTRICITY": 0.00022373, "INCLINATION": 98.0804, "RA_OF_ASC_NODE": 40.6408, "ARG_OF_PERICENTER": 338.3605, "MEAN_ANOMALY": 21.7509, "EPHEMERIS_TYPE": 0, "CLASSIFICATION_TYPE": "U", "NORAD_CAT_ID": 43260, "ELEMENT_SET_NO": 999, "REV_AT_EPOCH": 41462, "BSTAR": 0.00022092376, "MEAN_MOTION_DOT": 1.484e-05, "MEAN_MOTION_DDOT": 0}, "tle": {"line1": "1 43260U 18031B   25342.97566766  .00001484  00000+0  22092-3 0  9990", "line2": "2 43260  98.0804  40.6408 0002237 338.3605  21.7509 14.76423902414629"}}, "geometry": {"type": "Point", "coordinates": [35.99036046212138, 31.50484305401526]}}]}